ONEWEB-0395             
1 50475U 21132G   24143.44752269  .00000203  00000+0  53709-3 0  9994
2 50475  87.8973 171.4505 0001907  81.5937 278.5407 13.11452063116667
ONEWEB-0396             
1 50476U 21132H   24143.51333689  .00000084  00000+0  17954-3 0  9993
2 50476  87.9124 125.8825 0001848  84.8595 275.2748 13.18687605122045
ONEWEB-0397             
1 50477U 21132J   24143.45168269  .00000067  00000+0  13821-3 0  9997
2 50477  87.9125 125.8963 0001808  84.0878 276.0460 13.18687650122019
ONEWEB-0398             
1 50478U 21132K   24143.49160100 -.00001125  00000+0 -32113-2 0  9990
2 50478  87.8965 171.4223 0002334  84.2198 275.9196 13.11421675116562
ONEWEB-0399             
1 50479U 21132L   24143.47801044  .00002756  00000+0  77464-2 0  9995
2 50479  87.8965 171.4414 0001763  99.5030 260.6298 13.11348682116553
ONEWEB-0400             
1 50480U 21132M   24143.50701593  .00000024  00000+0  27092-4 0  9999
2 50480  87.9122 125.8895 0002242  82.1855 277.9531 13.18687774122017
ONEWEB-0401             
1 50481U 21132N   24143.47381050  .00000053  00000+0  10064-3 0  9990
2 50481  87.9120 125.8936 0001947  95.4035 264.7319 13.18687370122010
ONEWEB-0402             
1 50482U 21132P   24143.89429963  .00000072  00000+0  14979-3 0  9993
2 50482  87.9121 125.8071 0002277 101.5695 258.5693 13.18687046123376
